OBJECT_NAME,OBJECT_ID,EPOCH,MEAN_MOTION,ECCENTRICITY,INCLINATION,RA_OF_ASC_NODE,ARG_OF_PERICENTER,MEAN_ANOMALY,EPHEMERIS_TYPE,CLASSIFICATION_TYPE,NORAD_CAT_ID,ELEMENT_SET_NO,REV_AT_EPOCH,BSTAR,MEAN_MOTION_DOT,MEAN_MOTION_DDOT
LEMUR-2-ALISIA,2025-009DB,2026-06-06T11:33:16.466112,15.02615589,.00007317,97.6967,239.7242,190.8641,169.2568,0,U,62706,999,9855,.81238815E-3,.10769E-3,0
LEMUR-2-ROUNDTRIPPER,2025-009DG,2026-06-06T12:19:04.856160,15.03609690,.00042978,97.7231,240.2091,165.8436,194.2910,0,U,62711,999,7602,.90490045E-3,.12328E-3,0
LEMUR-2-MYNAMEISJEFF,2025-009DH,2026-06-06T12:16:54.723072,15.03625946,.00025646,97.7283,240.5819,196.4260,163.6882,0,U,62712,999,7602,.87871936E-3,.11973E-3,0
LEMUR-2-LEIA-PHILIP,2025-052AN,2026-06-06T13:51:50.070240,14.97284785,.00021,97.6844,49.7064,258.6996,101.3990,0,U,63246,999,6708,.20079E-3,.227E-4,0
LEMUR-2-LIA-MARTIN,2025-052AQ,2026-06-06T10:51:22.249440,14.97710585,.00021748,97.6902,50.0420,178.8869,181.2358,0,U,63248,999,6707,.60898001E-3,.7083E-4,0
LEMUR-2-DELOITTE-1,2025-052BB,2026-06-06T15:03:57.885120,14.97523139,.0002274,97.6917,50.5442,117.2997,242.8457,0,U,63259,999,6711,.38591E-3,.4444E-4,0
LEMUR-2-EMERSONROSE,2025-052BD,2026-06-06T14:43:14.151936,14.99010332,.0002617,97.6906,51.0686,76.2779,283.8735,0,U,63261,999,6715,.3521E-3,.4209E-4,0
LEMUR-2-MARACHE-FRAN,2025-052BE,2026-06-06T14:17:53.200896,14.99988403,.0006308,97.6942,51.3443,56.6630,303.5197,0,U,63262,999,6717,.64633E-3,.7983E-4,0
LEMUR-2-THEFALCONER,2025-052BG,2026-06-06T14:03:37.927296,14.97317137,.0003596,97.6873,50.1338,63.7178,296.4413,0,U,63264,999,6710,.4851E-3,.5572E-4,0
LEMUR-2-UNTITLED-SC,2025-061A,2026-06-06T15:24:53.272800,15.13399649,.0017189,97.5632,133.0820,304.8172,55.1441,0,U,63351,999,6599,.22983E-3,.405E-4,0
LEMUR-2-ESPERANZA,2025-061B,2026-06-06T18:03:18.669024,15.13493751,.0016865,97.5640,133.2822,303.7820,56.1804,0,U,63352,999,6601,.26543E-3,.4699E-4,0
LEMUR-2-KREMPEL-BRO2,2025-061C,2026-06-06T15:36:07.092576,15.13927449,.0017571,97.5689,133.7004,295.8751,64.0669,0,U,63353,999,6601,.24634E-3,.4411E-4,0
LEMUR-2-THERMORAPTOR,2025-061D,2026-06-06T04:04:52.612896,15.14001058,.0017353,97.5693,133.2970,296.5843,63.3609,0,U,63354,999,6594,.26919E-3,.4837E-4,0
LEMUR-2-NEUROSPICY,2025-061E,2026-06-06T17:41:46.549248,15.14121013,.0015215,97.5621,133.4953,298.8360,61.1344,0,U,63355,999,6603,.28602E-3,.5157E-4,0
LEMUR-2-TILLINFINITY,2025-061F,2026-06-06T15:28:06.555648,15.14706331,.0016254,97.5606,133.6862,285.7482,74.1957,0,U,63356,999,6604,.239E-3,.4372E-4,0
LEMUR-2-KREMPEL-BRO1,2025-061G,2026-06-06T16:23:06.067104,15.14511994,.001697,97.5607,133.6432,286.8150,73.1220,0,U,63357,999,6604,.2824E-3,.5151E-4,0
LEMUR-2-LANGER2SPACE,2025-061H,2026-06-06T16:58:14.837088,15.14208858,.0015026,97.5612,133.4855,297.0668,62.9030,0,U,63358,999,6603,.23059E-3,.4154E-4,0
LEMUR-2-BALTO,2025-052BH,2026-06-06T10:43:31.159488,14.99969570,.00065073,97.6877,51.1835,84.6270,275.5696,0,U,63395,999,6715,.59016671E-3,.7281E-4,0
LEMUR-2-KRISH,2025-135AK,2026-06-06T13:46:58.575648,14.96106318,.0001128,97.7727,272.5262,103.2930,256.8417,0,U,64561,999,5233,.5563E-3,.6201E-4,0
LEMUR-2-HUBBLE-4,2025-135AP,2026-06-06T14:46:12.567072,14.93168483,.000177,97.7688,271.6508,3.7631,356.3601,0,U,64565,999,5229,.17466E-3,.1767E-4,0
LEMUR-2-SEJONG-2,2025-135BL,2026-06-06T17:47:49.156224,14.96617170,.0004674,97.7683,272.8355,24.3108,335.8333,0,U,64586,999,5238,.57232E-3,.6467E-4,0
LEMUR-2-HUBBLE-5,2025-135BT,2026-06-06T13:49:37.053120,14.94102503,.0005969,97.7708,272.2283,28.3926,331.7618,0,U,64840,999,5232,.15856E-3,.1638E-4,0
LEMUR-2-KARENDARRELL,2025-135BU,2026-06-06T13:53:04.554816,14.99957693,.0009021,97.7674,273.8067,243.4518,116.5781,0,U,64841,999,5242,.82207E-3,.10168E-3,0
LEMUR-2-LUCILLE-ROSE,2025-135BV,2026-06-05T21:15:11.799936,15.00006001,.00106491,97.7773,273.1201,327.0038,33.0519,0,U,65403,999,4694,.79533409E-3,.9851E-4,0
LEMUR-2-AFFIE-WAUWIE,2025-248C,2026-06-05T08:17:02.238720,15.26809642,.00091039,45.3864,179.1302,8.2322,351.8715,0,U,66295,999,3278,.47373351E-3,.12446E-3,0
LEMUR-2-DEANANDMAEVE,2025-276N,2026-06-06T10:48:10.221984,15.19599967,.00067064,97.4208,231.1049,49.1401,311.0414,0,U,66678,999,2878,.4067415E-3,.86E-4,0
LEMUR-2-STAS-GORBUK,2025-276W,2026-06-06T11:05:34.286496,15.19266623,.00061813,97.4244,231.1727,49.2263,310.9508,0,U,66686,999,2878,.35382637E-3,.7399E-4,0
LEMUR-2-TEODOR,2025-276DG,2026-06-06T10:59:07.479744,15.20933331,.00018361,97.4146,231.3909,124.4913,235.6496,0,U,66768,999,2881,.32923324E-3,.722E-4,0
LEMUR-2-LAILA,2025-276DQ,2026-06-06T10:23:48.117120,15.21152512,.00014724,97.4170,231.4809,147.8107,212.3219,0,U,66776,999,2881,.36279352E-3,.8014E-4,0
LEMUR-2-CELIJO-SB-PK,2025-276DW,2026-06-06T10:18:11.373120,14.99845445,.00088315,97.5276,228.5585,158.5528,201.6068,0,U,66781,999,2101,.73136016E-3,.9014E-4,0
